{
  "type": "FeatureCollection",
  "features": [
    {
      "type": "Feature",
      "properties": {
        "norad_id": 55973,
        "name": "TIANMU-1 03",
        "group": "weather",
        "lat": -59.410616702166735,
        "lon": 163.36151348325626,
        "alt_km": 451.8100279733071,
        "timestamp": "2025-12-13T18:50:04.071568+00:00",
        "meta_object_name": "TIANMU-1 03",
        "meta_object_id": "2023-039A",
        "meta_epoch": "2025-12-13T08:11:10.380768",
        "meta_mean_motion": 15.40950697,
        "meta_eccentricity": 0.00043997,
        "meta_inclination": 97.5107,
        "meta_ra_of_asc_node": 150.0093,
        "meta_arg_of_pericenter": 59.242,
        "meta_mean_anomaly": 300.9259,
        "meta_ephemeris_type": 0,
        "meta_classification_type": "U",
        "meta_norad_cat_id": 55973,
        "meta_element_set_no": 999,
        "meta_rev_at_epoch": 15215,
        "meta_bstar": 0.00057681171,
        "meta_mean_motion_dot": 0.00023709,
        "meta_mean_motion_ddot": 0,
        "tle_line1": "1 55973U 23039A   25347.34109237  .00023709  00000+0  57681-3 0  9996",
        "tle_line2": "2 55973  97.5107 150.0093 0004399  59.2420 300.9259 15.40950697152153"
      },
      "geometry": {
        "type": "Point",
        "coordinates": [
          163.36151348325626,
          -59.410616702166735
        ]
      }
    },
    {
      "type": "Feature",
      "properties": {
        "norad_id": 55974,
        "name": "TIANMU-1 04",
        "group": "weather",
        "lat": 54.322781185309296,
        "lon": 139.07677168173797,
        "alt_km": 433.7155360822926,
        "timestamp": "2025-12-13T18:50:04.071579+00:00",
        "meta_object_name": "TIANMU-1 04",
        "meta_object_id": "2023-039B",
        "meta_epoch": "2025-12-13T06:07:53.999904",
        "meta_mean_motion": 15.41283948,
        "meta_eccentricity": 0.00050472,
        "meta_inclination": 97.5038,
        "meta_ra_of_asc_node": 149.1121,
        "meta_arg_of_pericenter": 54.444,
        "meta_mean_anomaly": 305.7276,
        "meta_ephemeris_type": 0,
        "meta_classification_type": "U",
        "meta_norad_cat_id": 55974,
        "meta_element_set_no": 999,
        "meta_rev_at_epoch": 15214,
        "meta_bstar": 0.00057486438,
        "meta_mean_motion_dot": 0.00023894,
        "meta_mean_motion_ddot": 0,
        "tle_line1": "1 55974U 23039B   25347.25548611  .00023894  00000+0  57486-3 0  9998",
        "tle_line2": "2 55974  97.5038 149.1121 0005047  54.4440 305.7276 15.41283948152148"
      },
      "geometry": {
        "type": "Point",
        "coordinates": [
          139.07677168173797,
          54.322781185309296
        ]
      }
    },
    {
      "type": "Feature",
      "properties": {
        "norad_id": 55975,
        "name": "TIANMU-1 05",
        "group": "weather",
        "lat": 81.27508614855117,
        "lon": 90.89455419694843,
        "alt_km": 433.01698411877715,
        "timestamp": "2025-12-13T18:50:04.071591+00:00",
        "meta_object_name": "TIANMU-1 05",
        "meta_object_id": "2023-039C",
        "meta_epoch": "2025-12-13T05:59:47.839200",
        "meta_mean_motion": 15.40902932,
        "meta_eccentricity": 0.00043652,
        "meta_inclination": 97.5084,
        "meta_ra_of_asc_node": 149.5988,
        "meta_arg_of_pericenter": 76.5312,
        "meta_mean_anomaly": 283.642,
        "meta_ephemeris_type": 0,
        "meta_classification_type": "U",
        "meta_norad_cat_id": 55975,
        "meta_element_set_no": 999,
        "meta_rev_at_epoch": 15212,
        "meta_bstar": 0.00055972101,
        "meta_mean_motion_dot": 0.00022965,
        "meta_mean_motion_ddot": 0,
        "tle_line1": "1 55975U 23039C   25347.24985925  .00022965  00000+0  55972-3 0  9997",
        "tle_line2": "2 55975  97.5084 149.5988 0004365  76.5312 283.6420 15.40902932152123"
      },
      "geometry": {
        "type": "Point",
        "coordinates": [
          90.89455419694843,
          81.27508614855117
        ]
      }
    },
    {
      "type": "Feature",
      "properties": {
        "norad_id": 55976,
        "name": "TIANMU-1 06",
        "group": "weather",
        "lat": 42.65251262933305,
        "lon": 143.63403589082603,
        "alt_km": 435.8224934357422,
        "timestamp": "2025-12-13T18:50:04.071602+00:00",
        "meta_object_name": "TIANMU-1 06",
        "meta_object_id": "2023-039D",
        "meta_epoch": "2025-12-13T06:11:00.408768",
        "meta_mean_motion": 15.4133572,
        "meta_eccentricity": 0.00046446,
        "meta_inclination": 97.5096,
        "meta_ra_of_asc_node": 150.0723,
        "meta_arg_of_pericenter": 71.5696,
        "meta_mean_anomaly": 288.6055,
        "meta_ephemeris_type": 0,
        "meta_classification_type": "U",
        "meta_norad_cat_id": 55976,
        "meta_element_set_no": 999,
        "meta_rev_at_epoch": 15214,
        "meta_bstar": 0.00056754726,
        "meta_mean_motion_dot": 0.00023626,
        "meta_mean_motion_ddot": 0,
        "tle_line1": "1 55976U 23039D   25347.25764362  .00023626  00000+0  56755-3 0  9994",
        "tle_line2": "2 55976  97.5096 150.0723 0004644  71.5696 288.6055 15.41335720152148"
      },
      "geometry": {
        "type": "Point",
        "coordinates": [
          143.63403589082603,
          42.65251262933305
        ]
      }
    },
    {
      "type": "Feature",
      "properties": {
        "norad_id": 56232,
        "name": "FENGYUN 3G",
        "group": "weather",
        "lat": 2.1943316825644774,
        "lon": 40.215922110497516,
        "alt_km": 400.30910724555906,
        "timestamp": "2025-12-13T18:50:04.071615+00:00",
        "meta_object_name": "FENGYUN 3G",
        "meta_object_id": "2023-055A",
        "meta_epoch": "2025-12-13T05:43:41.581344",
        "meta_mean_motion": 15.53691815,
        "meta_eccentricity": 0.00093164,
        "meta_inclination": 49.9931,
        "meta_ra_of_asc_node": 224.8801,
        "meta_arg_of_pericenter": 150.7063,
        "meta_mean_anomaly": 209.4429,
        "meta_ephemeris_type": 0,
        "meta_classification_type": "U",
        "meta_norad_cat_id": 56232,
        "meta_element_set_no": 999,
        "meta_rev_at_epoch": 15110,
        "meta_bstar": 0.00071714128,
        "meta_mean_motion_dot": 0.0004667,
        "meta_mean_motion_ddot": 0,
        "tle_line1": "1 56232U 23055A   25347.23867571  .00046670  00000+0  71714-3 0  9998",
        "tle_line2": "2 56232  49.9931 224.8801 0009316 150.7063 209.4429 15.53691815151103"
      },
      "geometry": {
        "type": "Point",
        "coordinates": [
          40.215922110497516,
          2.1943316825644774
        ]
      }
    },
    {
      "type": "Feature",
      "properties": {
        "norad_id": 57166,
        "name": "METEOR-M2 3",
        "group": "weather",
        "lat": -21.410711154593244,
        "lon": -142.1112819290753,
        "alt_km": 819.6981869922383,
        "timestamp": "2025-12-13T18:50:04.071626+00:00",
        "meta_object_name": "METEOR-M2 3",
        "meta_object_id": "2023-091A",
        "meta_epoch": "2025-12-13T07:46:22.622016",
        "meta_mean_motion": 14.24026233,
        "meta_eccentricity": 0.00038734,
        "meta_inclination": 98.6378,
        "meta_ra_of_asc_node": 40.853,
        "meta_arg_of_pericenter": 7.3753,
        "meta_mean_anomaly": 352.7482,
        "meta_ephemeris_type": 0,
        "meta_classification_type": "U",
        "meta_norad_cat_id": 57166,
        "meta_element_set_no": 999,
        "meta_rev_at_epoch": 12806,
        "meta_bstar": 3.5383238e-05,
        "meta_mean_motion_dot": 3.8e-07,
        "meta_mean_motion_ddot": 0,
        "tle_line1": "1 57166U 23091A   25347.32387294  .00000038  00000+0  35383-4 0  9995",
        "tle_line2": "2 57166  98.6378  40.8530 0003873   7.3753 352.7482 14.24026233128069"
      },
      "geometry": {
        "type": "Point",
        "coordinates": [
          -142.1112819290753,
          -21.410711154593244
        ]
      }
    },
    {
      "type": "Feature",
      "properties": {
        "norad_id": 57399,
        "name": "TIANMU-1 07",
        "group": "weather",
        "lat": 58.55454225268789,
        "lon": 25.53053979363639,
        "alt_km": 472.2706507352814,
        "timestamp": "2025-12-13T18:50:04.071637+00:00",
        "meta_object_name": "TIANMU-1 07",
        "meta_object_id": "2023-101A",
        "meta_epoch": "2025-12-13T06:00:11.299392",
        "meta_mean_motion": 15.28085501,
        "meta_eccentricity": 0.00055818,
        "meta_inclination": 97.2881,
        "meta_ra_of_asc_node": 37.0886,
        "meta_arg_of_pericenter": 80.5046,
        "meta_mean_anomaly": 279.6824,
        "meta_ephemeris_type": 0,
        "meta_classification_type": "U",
        "meta_norad_cat_id": 57399,
        "meta_element_set_no": 999,
        "meta_rev_at_epoch": 13323,
        "meta_bstar": 0.00043389157,
        "meta_mean_motion_dot": 0.00011822,
        "meta_mean_motion_ddot": 0,
        "tle_line1": "1 57399U 23101A   25347.25013078  .00011822  00000+0  43389-3 0  9990",
        "tle_line2": "2 57399  97.2881  37.0886 0005581  80.5046 279.6824 15.28085501133239"
      },
      "geometry": {
        "type": "Point",
        "coordinates": [
          25.53053979363639,
          58.55454225268789
        ]
      }
    }
  ]
}